GLOBALSTAR M057 [-]     
1 25943U 99058A   23300.60025798 -.00000066  00000+0  24854-3 0  9997
2 25943  51.9975 246.9061 0001966 217.2777 142.7936 12.24777039 93583
GLOBALSTAR M059 [-]     
1 25944U 99058B   23300.95540752 -.00000092  00000+0 -77211-4 0  9994
2 25944  52.0044  25.5433 0000530 158.6088  13.1141 11.99953915502221
GLOBALSTAR M056 [-]     
1 25945U 99058C   23300.57021713 -.00000099  00000+0 -13510-3 0  9992
2 25945  51.9984  43.9241 0001495  95.5437 277.9576 12.04770291 90474
GLOBALSTAR M031 [-]     
1 25946U 99058D   23300.87276940 -.00000111  00000+0 -20662-3 0  9991
2 25946  51.9976 331.2182 0001736  48.7402 123.2960 12.15997077 91750
GLOBALSTAR M039 [-]     
1 25961U 99062A   23300.94603027 -.00000086  00000+0  10049-3 0  9999
2 25961  51.9843 290.7561 0003095  97.5425 262.5794 12.62272820104668
GLOBALSTAR M034 [-]     
1 25962U 99062B   23300.78040036 -.00000047  00000+0  53447-3 0  9993
2 25962  51.9842 126.8572 0013939 355.9656  17.6787 11.79416740 67784
GLOBALSTAR M061 [-]     
1 25964U 99062D   23300.95627090 -.00000057  00000+0  37611-3 0  9991
2 25964  51.9795 302.5119 0005832 283.5228  89.0198 11.76752316 50754
